     2              NAVIGATION DATA                         RINEX VERSION / TYPE
CCRINEXN V1.6.0 UX  CDDIS               31-MAY-14 17:31     PGM / RUN BY / DATE 
IGS BROADCAST EPHEMERIS FILE                                COMMENT             
    0.1025D-07  0.2235D-07 -0.5960D-07 -0.1192D-06          ION ALPHA           
    0.9626D+05  0.1311D+06 -0.6554D+05 -0.5898D+06          ION BETA            
    0.931322574616D-09 0.532907051820D-14    61440     1795 DELTA-UTC: A0,A1,T,W
    16                                                      LEAP SECONDS        
                                                            END OF HEADER       
 5 14  5 30  4  0  0.0-0.369423069060D-03 0.261479726760D-11 0.000000000000D+00
    0.112000000000D+03-0.243750000000D+02 0.506056793582D-08-0.281316001369D-01
   -0.137090682983D-05 0.357411359437D-02 0.704824924469D-05 0.515359979248D+04
    0.446400000000D+06-0.204890966415D-07-0.658721879370D+00 0.540167093277D-07
    0.947198215202D+00 0.233875000000D+03 0.306970237514D+00-0.824141471657D-08
   -0.675385275365D-09 0.100000000000D+01 0.179400000000D+04 0.000000000000D+00
    0.200000000000D+01 0.000000000000D+00-0.102445483208D-07 0.112000000000D+03
    0.442578000000D+06 0.400000000000D+01 0.000000000000D+00 0.000000000000D+00
 6 14  5 30  4  0  0.0 0.668037682772D-05 0.409272615798D-11 0.000000000000D+00
    0.800000000000D+01 0.242187500000D+02 0.484341603343D-08 0.340017438428D+00
    0.132434070110D-05 0.322284409776D-03 0.604055821896D-05 0.518123080063D+04
    0.446400000000D+06-0.856816768646D-07-0.170590725226D+01-0.745058059692D-08
    0.960398256694D+00 0.258125000000D+03 0.238446280588D+01-0.784461247388D-08
    0.459304846176D-09 0.100000000000D+01 0.179400000000D+04 0.000000000000D+00
    0.200000000000D+01 0.630000000000D+02 0.605359673500D-08 0.800000000000D+01
    0.439740000000D+06 0.000000000000D+00 0.000000000000D+00 0.000000000000D+00
 7 14  5 30  4  0  0.0 0.351899769157D-03 0.420641299570D-11 0.000000000000D+00
    0.610000000000D+02 0.839062500000D+02 0.429089301863D-08 0.264859184439D+01
    0.434182584286D-05 0.738197122701D-02 0.234693288803D-05 0.515362921143D+04
    0.446400000000D+06-0.132247805595D-06 0.146318911995D+01-0.465661287308D-07
    0.973197884341D+00 0.340406250000D+03-0.283897670835D+01-0.812855287257D-08
    0.250010413937D-09 0.000000000000D+00 0.179400000000D+04 0.000000000000D+00
    0.200000000000D+01 0.000000000000D+00-0.107102096081D-07 0.610000000000D+02
    0.439200000000D+06 0.400000000000D+01 0.000000000000D+00 0.000000000000D+00
10 14  5 30  4  0  0.0-0.127649400383D-03-0.159161572810D-11 0.000000000000D+00
    0.860000000000D+02-0.245000000000D+02 0.530772108789D-08 0.184756773804D+00
   -0.106729567051D-05 0.135696729412D-01 0.710040330887D-05 0.515372995377D+04
    0.446400000000D+06-0.614672899246D-07-0.641470100467D+00 0.149011611938D-06
    0.942011970191D+00 0.230375000000D+03 0.865610856990D+00-0.854464163291D-08
   -0.670385067086D-09 0.100000000000D+01 0.179400000000D+04 0.000000000000D+00
    0.280000000000D+01 0.000000000000D+00-0.279396772385D-08 0.860000000000D+02
    0.439218000000D+06 0.400000000000D+01 0.000000000000D+00 0.000000000000D+00
11 14  5 30  4  0  0.0-0.493065919727D-03-0.318323145621D-11 0.000000000000D+00
    0.100000000000D+02 0.226562500000D+02 0.627097549701D-08 0.281281627622D+01
    0.101700425148D-05 0.149704749929D-01 0.759959220886D-05 0.515369932556D+04
    0.446400000000D+06 0.141561031342D-06-0.202151946621D+01-0.238418579102D-06
    0.890352941768D+00 0.192250000000D+03 0.128716096829D+01-0.848713923770D-08
    0.530736393015D-09 0.000000000000D+00 0.179400000000D+04 0.000000000000D+00
    0.200000000000D+01 0.000000000000D+00-0.121071934700D-07 0.100000000000D+02
    0.439200000000D+06 0.400000000000D+01 0.000000000000D+00 0.000000000000D+00
12 14  5 30  4  0  0.0 0.208192504942D-03 0.250111042988D-11 0.000000000000D+00
    0.410000000000D+02-0.114281250000D+03 0.387301846962D-08 0.219327890045D+01
   -0.591389834881D-05 0.515066494700D-02 0.477954745293D-05 0.515361908341D+04
    0.446400000000D+06-0.145286321640D-06 0.252668308165D+01 0.223517417908D-07
    0.987669106554D+00 0.298906250000D+03 0.441907662359D+00-0.791497254752D-08
   -0.180721813503D-09 0.100000000000D+01 0.179400000000D+04 0.000000000000D+00
    0.200000000000D+01 0.000000000000D+00-0.121071934700D-07 0.410000000000D+02
    0.439218000000D+06 0.400000000000D+01 0.000000000000D+00 0.000000000000D+00
13 14  5 30  4  0  0.0-0.526104122400D-05-0.386535248253D-11 0.000000000000D+00
    0.560000000000D+02 0.931250000000D+02 0.380444418466D-08-0.131918565383D+01
    0.479631125927D-05 0.538592110388D-02 0.106096267700D-04 0.515358956718D+04
    0.446400000000D+06-0.745058059692D-07 0.498690350695D+00 0.335276126862D-07
    0.977957352261D+00 0.185250000000D+03 0.227097465958D+01-0.766246202944D-08
   -0.514307137242D-10 0.000000000000D+00 0.179400000000D+04 0.000000000000D+00
    0.200000000000D+01 0.000000000000D+00-0.111758708954D-07 0.560000000000D+02
    0.439200000000D+06 0.400000000000D+01 0.000000000000D+00 0.000000000000D+00
14 14  5 30  4  0  0.0 0.168317928910D-03-0.341060513165D-11 0.000000000000D+00
    0.700000000000D+02 0.105375000000D+03 0.397909431668D-08-0.951382017543D+00
    0.539422035217D-05 0.753196107689D-02 0.103730708361D-04 0.515367253685D+04
    0.446400000000D+06 0.931322574616D-08 0.466827772565D+00 0.163912773132D-06
    0.970529922604D+00 0.187062500000D+03-0.200293507719D+01-0.782318300983D-08
   -0.197865384745D-09 0.100000000000D+01 0.179400000000D+04 0.000000000000D+00
    0.280000000000D+01 0.000000000000D+00-0.931322574616D-08 0.700000000000D+02
    0.439218000000D+06 0.400000000000D+01 0.000000000000D+00 0.000000000000D+00
15 14  5 30  4  0  0.0-0.182356219739D-03-0.216004991671D-11 0.000000000000D+00
    0.490000000000D+02 0.886562500000D+02 0.466269423072D-08-0.156848771187D+01
    0.458583235741D-05 0.626671942882D-02 0.101923942566D-04 0.515370138359D+04
    0.446400000000D+06-0.111758708954D-07 0.354790391884D+00-0.122934579849D-06
    0.937141057172D+00 0.173406250000D+03 0.275816333475D+00-0.793283039258D-08
   -0.187507814831D-09 0.100000000000D+01 0.179400000000D+04 0.000000000000D+00
    0.200000000000D+01 0.000000000000D+00-0.102445483208D-07 0.490000000000D+02
    0.439200000000D+06 0.000000000000D+00 0.000000000000D+00 0.000000000000D+00
16 14  5 30  4  0  0.0-0.215868931264D-03 0.193267624127D-11 0.000000000000D+00
    0.102000000000D+03-0.113593750000D+03 0.390373403476D-08 0.599181021380D-01
   -0.575557351112D-05 0.775117008015D-02 0.429898500442D-05 0.515359872246D+04
    0.446400000000D+06 0.128522515297D-06 0.254523586871D+01 0.428408384323D-07
    0.988286415559D+00 0.310000000000D+03 0.211596937656D+00-0.806605026908D-08
   -0.176793078427D-09 0.000000000000D+00 0.179400000000D+04 0.000000000000D+00
    0.200000000000D+01 0.000000000000D+00-0.102445483208D-07 0.102000000000D+03
    0.439200000000D+06 0.400000000000D+01 0.000000000000D+00 0.000000000000D+00
17 14  5 30  4  0  0.0-0.972449779510D-04-0.306954461848D-11 0.000000000000D+00
    0.710000000000D+02-0.471875000000D+02 0.419124601079D-08-0.875086044263D+00
   -0.226311385632D-05 0.928828958422D-02 0.109001994133D-04 0.515360455132D+04
    0.446400000000D+06 0.372529029846D-08-0.270657605221D+01 0.186264514923D-06
    0.969012371849D+00 0.176468750000D+03-0.209887241535D+01-0.778496713227D-08
    0.396445084958D-09 0.100000000000D+01 0.179400000000D+04 0.000000000000D+00
    0.200000000000D+01 0.000000000000D+00-0.102445483208D-07 0.710000000000D+02
    0.439218000000D+06 0.400000000000D+01 0.000000000000D+00 0.000000000000D+00
18 14  5 30  4  0  0.0 0.322352629155D-03 0.227373675443D-11 0.000000000000D+00
    0.310000000000D+02-0.185937500000D+02 0.570488056795D-08 0.714118227536D+00
   -0.813975930214D-06 0.153307765722D-01 0.739283859730D-05 0.515369141007D+04
    0.446400000000D+06-0.167638063431D-06-0.664045738159D+00 0.912696123123D-07
    0.925754928769D+00 0.223562500000D+03-0.203647428086D+01-0.874143513130D-08
   -0.740030814406D-09 0.100000000000D+01 0.179400000000D+04 0.000000000000D+00
    0.200000000000D+01 0.000000000000D+00-0.111758708954D-07 0.310000000000D+02
    0.439200000000D+06 0.000000000000D+00 0.000000000000D+00 0.000000000000D+00
19 14  5 30  4  0  0.0-0.459769740701D-03-0.216004991671D-11 0.000000000000D+00
    0.210000000000D+02-0.542812500000D+02 0.419660337680D-08-0.166104013994D+01
   -0.307895243168D-05 0.103866823483D-01 0.109523534775D-04 0.515362172699D+04
    0.446400000000D+06 0.949949026108D-07-0.265579849191D+01-0.122934579849D-06
    0.966103144200D+00 0.167468750000D+03 0.435207665792D+00-0.762817488696D-08
    0.570738059245D-09 0.000000000000D+00 0.179400000000D+04 0.000000000000D+00
    0.200000000000D+01 0.000000000000D+00-0.149011611938D-07 0.210000000000D+02
    0.439200000000D+06 0.400000000000D+01 0.000000000000D+00 0.000000000000D+00
20 14  5 30  4  0  0.0 0.194628257304D-03 0.397903932026D-11 0.000000000000D+00
    0.830000000000D+02-0.258437500000D+02 0.564130641163D-08 0.122955725375D+01
   -0.146590173244D-05 0.575471587945D-02 0.647082924843D-05 0.515378191185D+04
    0.446400000000D+06-0.141561031342D-06-0.717119434697D+00-0.391155481338D-07
    0.926708046230D+00 0.237625000000D+03 0.133251454769D+01-0.854928468345D-08
   -0.552523014801D-09 0.000000000000D+00 0.179400000000D+04 0.000000000000D+00
    0.200000000000D+01 0.000000000000D+00-0.838190317154D-08 0.830000000000D+02
    0.441090000000D+06 0.400000000000D+01 0.000000000000D+00 0.000000000000D+00
